{"type": "FeatureCollection", "features": [ {"type": "Feature", "properties": {"norad_id": 66323, "name": "STARLINK-35309", "group": "last-30-days", "lat": 19.389510415486207, "lon": -156.25795017965683, "alt_km": 411.9225955737711, "timestamp": "2025-12-02T06:27:51.799571+00:00", "meta": {"OBJECT_NAME": "STARLINK-35309", "OBJECT_ID": "2025-253E", "EPOCH": "2025-12-01T14:21:29.714112", "MEAN_MOTION": 15.50587461, "ECCENTRICITY": 0.00021322, "INCLINATION": 43.0003, "RA_OF_ASC_NODE": 49.8592, "ARG_OF_PERICENTER": 250.975, "MEAN_ANOMALY": 109.0879, "EPHEMERIS_TYPE": 0, "CLASSIFICATION_TYPE": "U", "NORAD_CAT_ID": 66323, "ELEMENT_SET_NO": 999, "REV_AT_EPOCH": 520, "BSTAR": 0.0016871215, "MEAN_MOTION_DOT": 0.00099939, "MEAN_MOTION_DDOT": 0}, "tle": {"line1": "1 66323U 25253E   25335.59826058  .00099939  00000+0  16871-2 0  9991", "line2": "2 66323  43.0003  49.8592 0002132 250.9750 109.0879 15.50587461  5208"}}, "geometry": {"type": "Point", "coordinates": [-156.25795017965683, 19.389510415486207]}}, {"type": "Feature", "properties": {"norad_id": 66324, "name": "STARLINK-35506", "group": "last-30-days", "lat": 23.65628754555801, "lon": -162.0920072334784, "alt_km": 410.59704787154806, "timestamp": "2025-12-02T06:27:51.799585+00:00", "meta": {"OBJECT_NAME": "STARLINK-35506", "OBJECT_ID": "2025-253F", "EPOCH": "2025-12-01T05:06:55.861056", "MEAN_MOTION": 15.50651952, "ECCENTRICITY": 0.0001459, "INCLINATION": 42.9999, "RA_OF_ASC_NODE": 52.1305, "ARG_OF_PERICENTER": 261.0822, "MEAN_ANOMALY": 98.9873, "EPHEMERIS_TYPE": 0, "CLASSIFICATION_TYPE": "U", "NORAD_CAT_ID": 66324, "ELEMENT_SET_NO": 999, "REV_AT_EPOCH": 514, "BSTAR": 0.0027895, "MEAN_MOTION_DOT": 0.00167285, "MEAN_MOTION_DDOT": 0}, "tle": {"line1": "1 66324U 25253F   25335.21314654  .00167285  00000+0  27895-2 0  9993", "line2": "2 66324  42.9999  52.1305 0001459 261.0822  98.9873 15.50651952  5144"}}, "geometry": {"type": "Point", "coordinates": [-162.0920072334784, 23.65628754555801]}}, {"type": "Feature", "properties": {"norad_id": 66325, "name": "STARLINK-35504", "group": "last-30-days", "lat": 21.374556711656346, "lon": -158.89614736263817, "alt_km": 411.00866232709814, "timestamp": "2025-12-02T06:27:51.799596+00:00", "meta": {"OBJECT_NAME": "STARLINK-35504", "OBJECT_ID": "2025-253G", "EPOCH": "2025-12-01T06:38:41.956800", "MEAN_MOTION": 15.50659884, "ECCENTRICITY": 0.0001584, "INCLINATION": 42.9997, "RA_OF_ASC_NODE": 51.7479, "ARG_OF_PERICENTER": 258.798, "MEAN_ANOMALY": 101.2703, "EPHEMERIS_TYPE": 0, "CLASSIFICATION_TYPE": "U", "NORAD_CAT_ID": 66325, "ELEMENT_SET_NO": 999, "REV_AT_EPOCH": 515, "BSTAR": 0.0026242, "MEAN_MOTION_DOT": 0.00157191, "MEAN_MOTION_DDOT": 0}, "tle": {"line1": "1 66325U 25253G   25335.27687450  .00157191  00000+0  26242-2 0  9997", "line2": "2 66325  42.9997  51.7479 0001584 258.7980 101.2703 15.50659884  5150"}}, "geometry": {"type": "Point", "coordinates": [-158.89614736263817, 21.374556711656346]}}, {"type": "Feature", "properties": {"norad_id": 66326, "name": "STARLINK-35479", "group": "last-30-days", "lat": 17.546156922800645, "lon": -153.91308960161336, "alt_km": 411.6749979405622, "timestamp": "2025-12-02T06:27:51.799606+00:00", "meta": {"OBJECT_NAME": "STARLINK-35479", "OBJECT_ID": "2025-253H", "EPOCH": "2025-11-30T15:09:38.571552", "MEAN_MOTION": 15.50600751, "ECCENTRICITY": 0.00010931, "INCLINATION": 43.0001, "RA_OF_ASC_NODE": 55.5057, "ARG_OF_PERICENTER": 276.0977, "MEAN_ANOMALY": 83.9758, "EPHEMERIS_TYPE": 0, "CLASSIFICATION_TYPE": "U", "NORAD_CAT_ID": 66326, "ELEMENT_SET_NO": 999, "REV_AT_EPOCH": 505, "BSTAR": 0.0017753695, "MEAN_MOTION_DOT": 0.00105303, "MEAN_MOTION_DDOT": 0}, "tle": {"line1": "1 66326U 25253H   25334.63169643  .00105303  00000+0  17754-2 0  9992", "line2": "2 66326  43.0001  55.5057 0001093 276.0977  83.9758 15.50600751  5051"}}, "geometry": {"type": "Point", "coordinates": [-153.91308960161336, 17.546156922800645]}}, {"type": "Feature", "properties": {"norad_id": 66327, "name": "STARLINK-35507", "group": "last-30-days", "lat": 24.714524673655916, "lon": -163.64612403899417, "alt_km": 410.86621097667285, "timestamp": "2025-12-02T06:27:51.799617+00:00", "meta": {"OBJECT_NAME": "STARLINK-35507", "OBJECT_ID": "2025-253J", "EPOCH": "2025-11-30T16:45:21.748032", "MEAN_MOTION": 15.50603191, "ECCENTRICITY": 0.00014781, "INCLINATION": 43.0002, "RA_OF_ASC_NODE": 55.147, "ARG_OF_PERICENTER": 276.0037, "MEAN_ANOMALY": 84.0654, "EPHEMERIS_TYPE": 0, "CLASSIFICATION_TYPE": "U", "NORAD_CAT_ID": 66327, "ELEMENT_SET_NO": 999, "REV_AT_EPOCH": 506, "BSTAR": 0.0017790984, "MEAN_MOTION_DOT": 0.00105538, "MEAN_MOTION_DDOT": 0}, "tle": {"line1": "1 66327U 25253J   25334.69816838  .00105538  00000+0  17791-2 0  9995", "line2": "2 66327  43.0002  55.1470 0001478 276.0037  84.0654 15.50603191  5061"}}, "geometry": {"type": "Point", "coordinates": [-163.64612403899417, 24.714524673655916]}}, {"type": "Feature", "properties": {"norad_id": 66328, "name": "STARLINK-35460", "group": "last-30-days", "lat": 14.427215485321334, "lon": -150.11522089593996, "alt_km": 413.18130252675746, "timestamp": "2025-12-02T06:27:51.799628+00:00", "meta": {"OBJECT_NAME": "STARLINK-35460", "OBJECT_ID": "2025-253K", "EPOCH": "2025-12-01T14:19:31.564704", "MEAN_MOTION": 15.50606087, "ECCENTRICITY": 0.00018266, "INCLINATION": 43.0003, "RA_OF_ASC_NODE": 49.8457, "ARG_OF_PERICENTER": 291.64, "MEAN_ANOMALY": 68.4265, "EPHEMERIS_TYPE": 0, "CLASSIFICATION_TYPE": "U", "NORAD_CAT_ID": 66328, "ELEMENT_SET_NO": 999, "REV_AT_EPOCH": 520, "BSTAR": 0.0016742687, "MEAN_MOTION_DOT": 0.0009923, "MEAN_MOTION_DDOT": 0}, "tle": {"line1": "1 66328U 25253K   25335.59689311  .00099230  00000+0  16743-2 0  9997", "line2": "2 66328  43.0003  49.8457 0001826 291.6400  68.4265 15.50606087  5209"}}, "geometry": {"type": "Point", "coordinates": [-150.11522089593996, 14.427215485321334]}}, {"type": "Feature", "properties": {"norad_id": 66329, "name": "STARLINK-35505", "group": "last-30-days", "lat": 26.483785097700675, "lon": -166.35720484292224, "alt_km": 411.77128173658184, "timestamp": "2025-12-02T06:27:51.799639+00:00", "meta": {"OBJECT_NAME": "STARLINK-35505", "OBJECT_ID": "2025-253L", "EPOCH": "2025-12-01T20:00:01.999008", "MEAN_MOTION": 15.50612338, "ECCENTRICITY": 0.000135, "INCLINATION": 43.0007, "RA_OF_ASC_NODE": 48.514, "ARG_OF_PERICENTER": 284.8369, "MEAN_ANOMALY": 297.6017, "EPHEMERIS_TYPE": 0, "CLASSIFICATION_TYPE": "U", "NORAD_CAT_ID": 66329, "ELEMENT_SET_NO": 999, "REV_AT_EPOCH": 517, "BSTAR": -0.0016109, "MEAN_MOTION_DOT": -0.00093829, "MEAN_MOTION_DDOT": 0}, "tle": {"line1": "1 66329U 25253L   25335.83335647 -.00093829  00000+0 -16109-2 0  9991", "line2": "2 66329  43.0007  48.5140 0001350 284.8369 297.6017 15.50612338  5172"}}, "geometry": {"type": "Point", "coordinates": [-166.35720484292224, 26.483785097700675]}}, {"type": "Feature", "properties": {"norad_id": 66330, "name": "STARLINK-35512", "group": "last-30-days", "lat": 42.25654555819463, "lon": 148.90536599523583, "alt_km": 439.1226699418394, "timestamp": "2025-12-02T06:27:51.799650+00:00", "meta": {"OBJECT_NAME": "STARLINK-35512", "OBJECT_ID": "2025-253M", "EPOCH": "2025-12-01T20:00:01.999008", "MEAN_MOTION": 15.40588538, "ECCENTRICITY": 0.0002384, "INCLINATION": 43.0006, "RA_OF_ASC_NODE": 48.5706, "ARG_OF_PERICENTER": 289.5125, "MEAN_ANOMALY": 268.9678, "EPHEMERIS_TYPE": 0, "CLASSIFICATION_TYPE": "U", "NORAD_CAT_ID": 66330, "ELEMENT_SET_NO": 999, "REV_AT_EPOCH": 517, "BSTAR": 0.0010747, "MEAN_MOTION_DOT": 0.00044687, "MEAN_MOTION_DDOT": 0}, "tle": {"line1": "1 66330U 25253M   25335.83335647  .00044687  00000+0  10747-2 0  9991", "line2": "2 66330  43.0006  48.5706 0002384 289.5125 268.9678 15.40588538  5178"}}, "geometry": {"type": "Point", "coordinates": [148.90536599523583, 42.25654555819463]}}, {"type": "Feature", "properties": {"norad_id": 66331, "name": "STARLINK-35257", "group": "last-30-days", "lat": 10.607184345293371, "lon": -145.69553761673916, "alt_km": 413.4318010870811, "timestamp": "2025-12-02T06:27:51.799663+00:00", "meta": {"OBJECT_NAME": "STARLINK-35257", "OBJECT_ID": "2025-253N", "EPOCH": "2025-12-01T14:18:02.532096", "MEAN_MOTION": 15.50609928, "ECCENTRICITY": 0.00018589, "INCLINATION": 43.0005, "RA_OF_ASC_NODE": 49.8389, "ARG_OF_PERICENTER": 278.6085, "MEAN_ANOMALY": 81.4565, "EPHEMERIS_TYPE": 0, "CLASSIFICATION_TYPE": "U", "NORAD_CAT_ID": 66331, "ELEMENT_SET_NO": 999, "REV_AT_EPOCH": 520, "BSTAR": 0.0017271486, "MEAN_MOTION_DOT": 0.00102432, "MEAN_MOTION_DDOT": 0}, "tle": {"line1": "1 66331U 25253N   25335.59586264  .00102432  00000+0  17271-2 0  9990", "line2": "2 66331  43.0005  49.8389 0001858 278.6085  81.4565 15.50609928  5203"}}, "geometry": {"type": "Point", "coordinates": [-145.69553761673916, 10.607184345293371]}}, {"type": "Feature", "properties": {"norad_id": 66332, "name": "STARLINK-35322", "group": "last-30-days", "lat": 16.935327366205918, "lon": -153.15058090006818, "alt_km": 412.6719098368558, "timestamp": "2025-12-02T06:27:51.799673+00:00", "meta": {"OBJECT_NAME": "STARLINK-35322", "OBJECT_ID": "2025-253P", "EPOCH": "2025-12-01T14:20:30.831648", "MEAN_MOTION": 15.50602448, "ECCENTRICITY": 0.00015639, "INCLINATION": 43.0007, "RA_OF_ASC_NODE": 49.8523, "ARG_OF_PERICENTER": 284.4587, "MEAN_ANOMALY": 75.61, "EPHEMERIS_TYPE": 0, "CLASSIFICATION_TYPE": "U", "NORAD_CAT_ID": 66332, "ELEMENT_SET_NO": 999, "REV_AT_EPOCH": 520, "BSTAR": 0.0015013415, "MEAN_MOTION_DOT": 0.00088815, "MEAN_MOTION_DDOT": 0}, "tle": {"line1": "1 66332U 25253P   25335.59757907  .00088815  00000+0  15013-2 0  9995", "line2": "2 66332  43.0007  49.8523 0001563 284.4587  75.6100 15.50602448  5201"}}, "geometry": {"type": "Point", "coordinates": [-153.15058090006818, 16.935327366205918]}}]}